{"type": "FeatureCollection", "features": [ {"type": "Feature", "properties": {"norad_id": 38779, "name": "GSAT-10 (GAGAN/PRN 128)", "group": "gnss", "lat": -0.028079072517879028, "lon": 128.7095964462145, "alt_km": 35775.83808430223, "timestamp": "2025-12-10T21:43:22.330473+00:00", "meta": {"OBJECT_NAME": "GSAT-10 (GAGAN/PRN 128)", "OBJECT_ID": "2012-051B", "EPOCH": "2025-12-10T00:35:38.776704", "MEAN_MOTION": 1.00273767, "ECCENTRICITY": 0.00023131, "INCLINATION": 0.0553, "RA_OF_ASC_NODE": 262.8411, "ARG_OF_PERICENTER": 228.584, "MEAN_ANOMALY": 39.4837, "EPHEMERIS_TYPE": 0, "CLASSIFICATION_TYPE": "U", "NORAD_CAT_ID": 38779, "ELEMENT_SET_NO": 999, "REV_AT_EPOCH": 4820, "BSTAR": 0, "MEAN_MOTION_DOT": -1.62e-06, "MEAN_MOTION_DDOT": 0}, "tle": {"line1": "1 38779U 12051B   25344.02475436 -.00000162  00000+0  00000+0 0  9990", "line2": "2 38779   0.0553 262.8411 0002313 228.5840  39.4837  1.00273767 48202"}}, "geometry": {"type": "Point", "coordinates": [128.7095964462145, -0.028079072517879028]}}, {"type": "Feature", "properties": {"norad_id": 38833, "name": "GPS BIIF-3  (PRN 24)", "group": "gnss", "lat": 27.984479192149983, "lon": 174.42681909370185, "alt_km": 19765.860793766242, "timestamp": "2025-12-10T21:43:22.330485+00:00", "meta": {"OBJECT_NAME": "GPS BIIF-3  (PRN 24)", "OBJECT_ID": "2012-053A", "EPOCH": "2025-12-09T20:38:00.572640", "MEAN_MOTION": 2.00564945, "ECCENTRICITY": 0.0175755, "INCLINATION": 53.5569, "RA_OF_ASC_NODE": 151.3565, "ARG_OF_PERICENTER": 63.953, "MEAN_ANOMALY": 297.8432, "EPHEMERIS_TYPE": 0, "CLASSIFICATION_TYPE": "U", "NORAD_CAT_ID": 38833, "ELEMENT_SET_NO": 999, "REV_AT_EPOCH": 9564, "BSTAR": 0, "MEAN_MOTION_DOT": 6.8e-07, "MEAN_MOTION_DDOT": 0}, "tle": {"line1": "1 38833U 12053A   25343.85972885  .00000068  00000+0  00000+0 0  9997", "line2": "2 38833  53.5569 151.3565 0175755  63.9530 297.8432  2.00564945 95646"}}, "geometry": {"type": "Point", "coordinates": [174.42681909370185, 27.984479192149983]}}, {"type": "Feature", "properties": {"norad_id": 38857, "name": "GSAT0103 (GALILEO-FM3)", "group": "gnss", "lat": -8.6762246538729, "lon": -67.31804035581584, "alt_km": 23222.105491477076, "timestamp": "2025-12-10T21:43:22.330496+00:00", "meta": {"OBJECT_NAME": "GSAT0103 (GALILEO-FM3)", "OBJECT_ID": "2012-055A", "EPOCH": "2025-12-08T20:02:14.787168", "MEAN_MOTION": 1.70473288, "ECCENTRICITY": 0.00025504, "INCLINATION": 55.6903, "RA_OF_ASC_NODE": 106.7738, "ARG_OF_PERICENTER": 268.6106, "MEAN_ANOMALY": 91.3235, "EPHEMERIS_TYPE": 0, "CLASSIFICATION_TYPE": "U", "NORAD_CAT_ID": 38857, "ELEMENT_SET_NO": 999, "REV_AT_EPOCH": 8176, "BSTAR": 0, "MEAN_MOTION_DOT": 1.1e-07, "MEAN_MOTION_DDOT": 0}, "tle": {"line1": "1 38857U 12055A   25342.83489337  .00000011  00000+0  00000+0 0  9995", "line2": "2 38857  55.6903 106.7738 0002550 268.6106  91.3235  1.70473288 81769"}}, "geometry": {"type": "Point", "coordinates": [-67.31804035581584, -8.6762246538729]}}, {"type": "Feature", "properties": {"norad_id": 38953, "name": "BEIDOU-2 G6 (C02)", "group": "gnss", "lat": 3.213940009709206, "lon": 129.74421874305494, "alt_km": 35804.51973670631, "timestamp": "2025-12-10T21:43:22.330508+00:00", "meta": {"OBJECT_NAME": "BEIDOU-2 G6 (C02)", "OBJECT_ID": "2012-059A", "EPOCH": "2025-12-10T16:21:48.932640", "MEAN_MOTION": 1.00269723, "ECCENTRICITY": 0.00075965, "INCLINATION": 3.9441, "RA_OF_ASC_NODE": 75.5193, "ARG_OF_PERICENTER": 289.2331, "MEAN_ANOMALY": 44.3773, "EPHEMERIS_TYPE": 0, "CLASSIFICATION_TYPE": "U", "NORAD_CAT_ID": 38953, "ELEMENT_SET_NO": 999, "REV_AT_EPOCH": 4801, "BSTAR": 0, "MEAN_MOTION_DOT": -1.71e-06, "MEAN_MOTION_DDOT": 0}, "tle": {"line1": "1 38953U 12059A   25344.68181635 -.00000171  00000+0  00000+0 0  9999", "line2": "2 38953   3.9441  75.5193 0007596 289.2331  44.3773  1.00269723 48017"}}, "geometry": {"type": "Point", "coordinates": [129.74421874305494, 3.213940009709206]}}, {"type": "Feature", "properties": {"norad_id": 38977, "name": "LUCH 5B (SDCM/PRN 125)", "group": "gnss", "lat": -3.8004277620921374, "lon": 29.734922961147753, "alt_km": 35811.566017888465, "timestamp": "2025-12-10T21:43:22.330519+00:00", "meta": {"OBJECT_NAME": "LUCH 5B (SDCM/PRN 125)", "OBJECT_ID": "2012-061A", "EPOCH": "2025-12-09T10:04:20.301024", "MEAN_MOTION": 1.00272312, "ECCENTRICITY": 0.00072, "INCLINATION": 10.0741, "RA_OF_ASC_NODE": 51.7379, "ARG_OF_PERICENTER": 192.1365, "MEAN_ANOMALY": 329.2783, "EPHEMERIS_TYPE": 0, "CLASSIFICATION_TYPE": "U", "NORAD_CAT_ID": 38977, "ELEMENT_SET_NO": 999, "REV_AT_EPOCH": 4770, "BSTAR": 0, "MEAN_MOTION_DOT": -1.38e-06, "MEAN_MOTION_DDOT": 0}, "tle": {"line1": "1 38977U 12061A   25343.41967941 -.00000138  00000+0  00000+0 0  9993", "line2": "2 38977  10.0741  51.7379 0007200 192.1365 329.2783  1.00272312 47707"}}, "geometry": {"type": "Point", "coordinates": [29.734922961147753, -3.8004277620921374]}}, {"type": "Feature", "properties": {"norad_id": 39155, "name": "COSMOS 2485 (747)", "group": "gnss", "lat": 45.43630324052239, "lon": -127.8635024688778, "alt_km": 19136.152256667963, "timestamp": "2025-12-10T21:43:22.330536+00:00", "meta": {"OBJECT_NAME": "COSMOS 2485 (747)", "OBJECT_ID": "2013-019A", "EPOCH": "2025-12-09T07:54:23.495904", "MEAN_MOTION": 2.1310286, "ECCENTRICITY": 0.00245626, "INCLINATION": 65.3117, "RA_OF_ASC_NODE": 79.982, "ARG_OF_PERICENTER": 229.1601, "MEAN_ANOMALY": 130.6433, "EPHEMERIS_TYPE": 0, "CLASSIFICATION_TYPE": "U", "NORAD_CAT_ID": 39155, "ELEMENT_SET_NO": 999, "REV_AT_EPOCH": 9823, "BSTAR": 0, "MEAN_MOTION_DOT": -1.3e-07, "MEAN_MOTION_DDOT": 0}, "tle": {"line1": "1 39155U 13019A   25343.32943861 -.00000013  00000+0  00000+0 0  9993", "line2": "2 39155  65.3117  79.9820 0024562 229.1601 130.6433  2.13102860 98238"}}, "geometry": {"type": "Point", "coordinates": [-127.8635024688778, 45.43630324052239]}}, {"type": "Feature", "properties": {"norad_id": 39166, "name": "GPS BIIF-4  (PRN 27)", "group": "gnss", "lat": 34.63812852399746, "lon": 67.31101487174769, "alt_km": 20155.248432377553, "timestamp": "2025-12-10T21:43:22.330554+00:00", "meta": {"OBJECT_NAME": "GPS BIIF-4  (PRN 27)", "OBJECT_ID": "2013-023A", "EPOCH": "2025-12-10T05:20:05.646048", "MEAN_MOTION": 2.00565117, "ECCENTRICITY": 0.01377338, "INCLINATION": 54.6542, "RA_OF_ASC_NODE": 276.6706, "ARG_OF_PERICENTER": 48.5876, "MEAN_ANOMALY": 312.6029, "EPHEMERIS_TYPE": 0, "CLASSIFICATION_TYPE": "U", "NORAD_CAT_ID": 39166, "ELEMENT_SET_NO": 999, "REV_AT_EPOCH": 9209, "BSTAR": 0, "MEAN_MOTION_DOT": -5.9e-07, "MEAN_MOTION_DDOT": 0}, "tle": {"line1": "1 39166U 13023A   25344.22228757 -.00000059  00000+0  00000+0 0  9990", "line2": "2 39166  54.6542 276.6706 0137733  48.5876 312.6029  2.00565117 92099"}}, "geometry": {"type": "Point", "coordinates": [67.31101487174769, 34.63812852399746]}}, {"type": "Feature", "properties": {"norad_id": 39199, "name": "IRNSS-1A", "group": "gnss", "lat": 19.060337299165624, "lon": 95.75677664314617, "alt_km": 35861.47969674138, "timestamp": "2025-12-10T21:43:22.330603+00:00", "meta": {"OBJECT_NAME": "IRNSS-1A", "OBJECT_ID": "2013-034A", "EPOCH": "2025-12-02T19:49:26.431104", "MEAN_MOTION": 1.00279053, "ECCENTRICITY": 0.00216608, "INCLINATION": 35.2852, "RA_OF_ASC_NODE": 66.6964, "ARG_OF_PERICENTER": 185.4059, "MEAN_ANOMALY": 172.3398, "EPHEMERIS_TYPE": 0, "CLASSIFICATION_TYPE": "U", "NORAD_CAT_ID": 39199, "ELEMENT_SET_NO": 999, "REV_AT_EPOCH": 4539, "BSTAR": 0, "MEAN_MOTION_DOT": 6.5e-07, "MEAN_MOTION_DDOT": 0}, "tle": {"line1": "1 39199U 13034A   25336.82600036  .00000065  00000+0  00000+0 0  9995", "line2": "2 39199  35.2852  66.6964 0021660 185.4059 172.3398  1.00279053 45393"}}, "geometry": {"type": "Point", "coordinates": [95.75677664314617, 19.060337299165624]}}, {"type": "Feature", "properties": {"norad_id": 39533, "name": "GPS BIIF-5  (PRN 30)", "group": "gnss", "lat": 34.14503773313466, "lon": -52.999403638033215, "alt_km": 20178.092758376064, "timestamp": "2025-12-10T21:43:22.330618+00:00", "meta": {"OBJECT_NAME": "GPS BIIF-5  (PRN 30)", "OBJECT_ID": "2014-008A", "EPOCH": "2025-12-09T17:13:43.085856", "MEAN_MOTION": 2.00574232, "ECCENTRICITY": 0.00791313, "INCLINATION": 53.6308, "RA_OF_ASC_NODE": 157.0479, "ARG_OF_PERICENTER": 226.4542, "MEAN_ANOMALY": 132.8924, "EPHEMERIS_TYPE": 0, "CLASSIFICATION_TYPE": "U", "NORAD_CAT_ID": 39533, "ELEMENT_SET_NO": 999, "REV_AT_EPOCH": 8588, "BSTAR": 0, "MEAN_MOTION_DOT": 6.7e-07, "MEAN_MOTION_DDOT": 0}, "tle": {"line1": "1 39533U 14008A   25343.71785979  .00000067  00000+0  00000+0 0  9997", "line2": "2 39533  53.6308 157.0479 0079131 226.4542 132.8924  2.00574232 85882"}}, "geometry": {"type": "Point", "coordinates": [-52.999403638033215, 34.14503773313466]}}, {"type": "Feature", "properties": {"norad_id": 39617, "name": "ASTRA 5B (EGNOS/PRN 123)", "group": "gnss", "lat": 0.05092092141750187, "lon": 69.20910836221616, "alt_km": 35804.59988333276, "timestamp": "2025-12-10T21:43:22.330631+00:00", "meta": {"OBJECT_NAME": "ASTRA 5B (EGNOS/PRN 123)", "OBJECT_ID": "2014-011B", "EPOCH": "2025-12-10T06:13:38.752320", "MEAN_MOTION": 1.00270998, "ECCENTRICITY": 0.000448, "INCLINATION": 0.0572, "RA_OF_ASC_NODE": 32.7136, "ARG_OF_PERICENTER": 230.7505, "MEAN_ANOMALY": 292.6692, "EPHEMERIS_TYPE": 0, "CLASSIFICATION_TYPE": "U", "NORAD_CAT_ID": 39617, "ELEMENT_SET_NO": 999, "REV_AT_EPOCH": 4277, "BSTAR": 0, "MEAN_MOTION_DOT": 1.4e-06, "MEAN_MOTION_DDOT": 0}, "tle": {"line1": "1 39617U 14011B   25344.25947630  .00000140  00000+0  00000+0 0  9990", "line2": "2 39617   0.0572  32.7136 0004480 230.7505 292.6692  1.00270998 42774"}}, "geometry": {"type": "Point", "coordinates": [69.20910836221616, 0.05092092141750187]}}]}